[{"OBJECT_NAME":"OCO 2","OBJECT_ID":"2014-035A","EPOCH":"2026-03-09T22:15:57.149856","MEAN_MOTION":14.57095091,"ECCENTRICITY":0.00012283,"INCLINATION":98.2095,"RA_OF_ASC_NODE":11.7709,"ARG_OF_PERICENTER":93.7324,"MEAN_ANOMALY":266.4015,"EPHEMERIS_TYPE":0,"CLASSIFICATION_TYPE":"U","NORAD_CAT_ID":40059,"ELEMENT_SET_NO":999,"REV_AT_EPOCH":62159,"BSTAR":0.00017420866,"MEAN_MOTION_DOT":7.39e-6,"MEAN_MOTION_DDOT":0},{"OBJECT_NAME":"NOAA 16 DEB","OBJECT_ID":"2000-055TL","EPOCH":"2026-03-08T20:23:40.328448","MEAN_MOTION":14.59998896,"ECCENTRICITY":0.00136824,"INCLINATION":98.8526,"RA_OF_ASC_NODE":210.4719,"ARG_OF_PERICENTER":208.3791,"MEAN_ANOMALY":151.6663,"EPHEMERIS_TYPE":0,"CLASSIFICATION_TYPE":"U","NORAD_CAT_ID":42416,"ELEMENT_SET_NO":999,"REV_AT_EPOCH":51521,"BSTAR":0.0060149488,"MEAN_MOTION_DOT":0.00028968,"MEAN_MOTION_DDOT":0}]
